[{"OBJECT_NAME":"ADRAS-J","OBJECT_ID":"2024-034A","EPOCH":"2026-03-09T21:58:53.298624","MEAN_MOTION":15.13266815,"ECCENTRICITY":0.00758128,"INCLINATION":98.223,"RA_OF_ASC_NODE":88.3954,"ARG_OF_PERICENTER":99.4078,"MEAN_ANOMALY":261.5731,"EPHEMERIS_TYPE":0,"CLASSIFICATION_TYPE":"U","NORAD_CAT_ID":58992,"ELEMENT_SET_NO":999,"REV_AT_EPOCH":11235,"BSTAR":0.00021470617,"MEAN_MOTION_DOT":4.016e-5,"MEAN_MOTION_DDOT":0},{"OBJECT_NAME":"STARLINK-31866","OBJECT_ID":"2024-084Q","EPOCH":"2026-03-09T22:03:58.531680","MEAN_MOTION":15.27567508,"ECCENTRICITY":0.00010335,"INCLINATION":42.9986,"RA_OF_ASC_NODE":33.0943,"ARG_OF_PERICENTER":225.7719,"MEAN_ANOMALY":134.3047,"EPHEMERIS_TYPE":0,"CLASSIFICATION_TYPE":"U","NORAD_CAT_ID":59668,"ELEMENT_SET_NO":999,"REV_AT_EPOCH":10449,"BSTAR":4.3681295e-5,"MEAN_MOTION_DOT":9.4e-6,"MEAN_MOTION_DDOT":0}]
