ADRAS-J                 
1 58992U 24034A   26068.91589465  .00004016  00000+0  21471-3 0  9993
2 58992  98.2230  88.3954 0075813  99.4078 261.5731 15.13266815112352
STARLINK-31866          
1 59668U 24084Q   26068.91942745  .00000940  00000+0  43681-4 0  9993
2 59668  42.9986  33.0943 0001034 225.7719 134.3047 15.27567508104493
